[{"OBJECT_NAME":"STARLINK-34088","OBJECT_ID":"2025-102D","EPOCH":"2026-03-09T12:34:58.309536","MEAN_MOTION":14.98327665,"ECCENTRICITY":0.00035403,"INCLINATION":70.0003,"RA_OF_ASC_NODE":115.02,"ARG_OF_PERICENTER":271.83,"MEAN_ANOMALY":88.2454,"EPHEMERIS_TYPE":0,"CLASSIFICATION_TYPE":"U","NORAD_CAT_ID":64025,"ELEMENT_SET_NO":999,"REV_AT_EPOCH":4593,"BSTAR":6.7168764e-5,"MEAN_MOTION_DOT":7.08e-6,"MEAN_MOTION_DDOT":0},{"OBJECT_NAME":"COSMOS 2251 DEB","OBJECT_ID":"1993-036BRU","EPOCH":"2026-02-21T14:09:45.153216","MEAN_MOTION":14.99001579,"ECCENTRICITY":0.0017259,"INCLINATION":74.0061,"RA_OF_ASC_NODE":146.9269,"ARG_OF_PERICENTER":277.3195,"MEAN_ANOMALY":147.2685,"EPHEMERIS_TYPE":0,"CLASSIFICATION_TYPE":"U","NORAD_CAT_ID":38062,"ELEMENT_SET_NO":999,"REV_AT_EPOCH":64090,"BSTAR":0.0019091,"MEAN_MOTION_DOT":0.00023247,"MEAN_MOTION_DDOT":0}]
